{
  "type": "FeatureCollection",
  "features": [
    {
      "type": "Feature",
      "properties": {
        "norad_id": 35165,
        "name": "FENGYUN 1C DEB",
        "group": "fengyun-1c-debris",
        "lat": 31.068440551091303,
        "lon": 82.50530601351674,
        "alt_km": 762.7163287562344,
        "timestamp": "2025-12-21T18:54:58.783927+00:00",
        "meta_object_name": "FENGYUN 1C DEB",
        "meta_object_id": "1999-025DMV",
        "meta_epoch": "2025-12-21T05:22:21.779616",
        "meta_mean_motion": 14.33882696,
        "meta_eccentricity": 0.0020007,
        "meta_inclination": 98.8797,
        "meta_ra_of_asc_node": 87.3309,
        "meta_arg_of_pericenter": 36.4089,
        "meta_mean_anomaly": 323.8451,
        "meta_ephemeris_type": 0,
        "meta_classification_type": "U",
        "meta_norad_cat_id": 35165,
        "meta_element_set_no": 999,
        "meta_rev_at_epoch": 89842,
        "meta_bstar": 0.0014686,
        "meta_mean_motion_dot": 4.055e-05,
        "meta_mean_motion_ddot": 0,
        "tle_line1": "1 35165U 99025DMV 25355.22386319  .00004055  00000+0  14686-2 0  9999",
        "tle_line2": "2 35165  98.8797  87.3309 0020007  36.4089 323.8451 14.33882696898426"
      },
      "geometry": {
        "type": "Point",
        "coordinates": [
          82.50530601351674,
          31.068440551091303
        ]
      }
    },
    {
      "type": "Feature",
      "properties": {
        "norad_id": 35167,
        "name": "FENGYUN 1C DEB",
        "group": "fengyun-1c-debris",
        "lat": 64.28879248214126,
        "lon": -29.233613376085685,
        "alt_km": 838.9672260863654,
        "timestamp": "2025-12-21T18:54:58.783937+00:00",
        "meta_object_name": "FENGYUN 1C DEB",
        "meta_object_id": "1999-025DMX",
        "meta_epoch": "2025-12-17T22:18:45.149472",
        "meta_mean_motion": 14.31170783,
        "meta_eccentricity": 0.02295949,
        "meta_inclination": 98.4497,
        "meta_ra_of_asc_node": 344.992,
        "meta_arg_of_pericenter": 188.7522,
        "meta_mean_anomaly": 170.9628,
        "meta_ephemeris_type": 0,
        "meta_classification_type": "U",
        "meta_norad_cat_id": 35167,
        "meta_element_set_no": 999,
        "meta_rev_at_epoch": 70094,
        "meta_bstar": 0.00031462149,
        "meta_mean_motion_dot": 1.059e-05,
        "meta_mean_motion_ddot": 0,
        "tle_line1": "1 35167U 99025DMX 25351.92968923  .00001059  00000+0  31462-3 0  9994",
        "tle_line2": "2 35167  98.4497 344.9920 0229594 188.7522 170.9628 14.31170783700948"
      },
      "geometry": {
        "type": "Point",
        "coordinates": [
          -29.233613376085685,
          64.28879248214126
        ]
      }
    },
    {
      "type": "Feature",
      "properties": {
        "norad_id": 35168,
        "name": "FENGYUN 1C DEB",
        "group": "fengyun-1c-debris",
        "lat": -43.5855628417163,
        "lon": 59.0604110311158,
        "alt_km": 895.3386127258427,
        "timestamp": "2025-12-21T18:54:58.783947+00:00",
        "meta_object_name": "FENGYUN 1C DEB",
        "meta_object_id": "1999-025DMY",
        "meta_epoch": "2025-12-11T11:53:15.848448",
        "meta_mean_motion": 14.15522112,
        "meta_eccentricity": 0.01260569,
        "meta_inclination": 98.2752,
        "meta_ra_of_asc_node": 237.4634,
        "meta_arg_of_pericenter": 131.2558,
        "meta_mean_anomaly": 229.9558,
        "meta_ephemeris_type": 0,
        "meta_classification_type": "U",
        "meta_norad_cat_id": 35168,
        "meta_element_set_no": 999,
        "meta_rev_at_epoch": 57906,
        "meta_bstar": 0.00034767464,
        "meta_mean_motion_dot": 6.96e-06,
        "meta_mean_motion_ddot": 0,
        "tle_line1": "1 35168U 99025DMY 25345.49532232  .00000696  00000+0  34767-3 0  9997",
        "tle_line2": "2 35168  98.2752 237.4634 0126056 131.2558 229.9558 14.15522112579063"
      },
      "geometry": {
        "type": "Point",
        "coordinates": [
          59.0604110311158,
          -43.5855628417163
        ]
      }
    },
    {
      "type": "Feature",
      "properties": {
        "norad_id": 35169,
        "name": "FENGYUN 1C DEB",
        "group": "fengyun-1c-debris",
        "lat": -66.50110928810369,
        "lon": -98.04920818674661,
        "alt_km": 796.209907154177,
        "timestamp": "2025-12-21T18:54:58.783957+00:00",
        "meta_object_name": "FENGYUN 1C DEB",
        "meta_object_id": "1999-025DMZ",
        "meta_epoch": "2025-12-13T21:54:45.837792",
        "meta_mean_motion": 14.5866776,
        "meta_eccentricity": 0.01527117,
        "meta_inclination": 99.1288,
        "meta_ra_of_asc_node": 231.5975,
        "meta_arg_of_pericenter": 104.1831,
        "meta_mean_anomaly": 257.6385,
        "meta_ephemeris_type": 0,
        "meta_classification_type": "U",
        "meta_norad_cat_id": 35169,
        "meta_element_set_no": 999,
        "meta_rev_at_epoch": 65797,
        "meta_bstar": 0.00059843273,
        "meta_mean_motion_dot": 3.218e-05,
        "meta_mean_motion_ddot": 0,
        "tle_line1": "1 35169U 99025DMZ 25347.91303053  .00003218  00000+0  59843-3 0  9999",
        "tle_line2": "2 35169  99.1288 231.5975 0152711 104.1831 257.6385 14.58667760657970"
      },
      "geometry": {
        "type": "Point",
        "coordinates": [
          -98.04920818674661,
          -66.50110928810369
        ]
      }
    },
    {
      "type": "Feature",
      "properties": {
        "norad_id": 35171,
        "name": "FENGYUN 1C DEB",
        "group": "fengyun-1c-debris",
        "lat": 80.00102898924919,
        "lon": 82.82586162699891,
        "alt_km": 992.1607223403962,
        "timestamp": "2025-12-21T18:54:58.783967+00:00",
        "meta_object_name": "FENGYUN 1C DEB",
        "meta_object_id": "1999-025DNB",
        "meta_epoch": "2025-12-17T21:33:01.857888",
        "meta_mean_motion": 13.94988633,
        "meta_eccentricity": 0.01381219,
        "meta_inclination": 99.0078,
        "meta_ra_of_asc_node": 143.144,
        "meta_arg_of_pericenter": 304.4943,
        "meta_mean_anomaly": 54.3238,
        "meta_ephemeris_type": 0,
        "meta_classification_type": "U",
        "meta_norad_cat_id": 35171,
        "meta_element_set_no": 999,
        "meta_rev_at_epoch": 88630,
        "meta_bstar": 0.0013902005,
        "meta_mean_motion_dot": 1.981e-05,
        "meta_mean_motion_ddot": 0,
        "tle_line1": "1 35171U 99025DNB 25351.89793817  .00001981  00000+0  13902-2 0  9995",
        "tle_line2": "2 35171  99.0078 143.1440 0138121 304.4943  54.3238 13.94988633886306"
      },
      "geometry": {
        "type": "Point",
        "coordinates": [
          82.82586162699891,
          80.00102898924919
        ]
      }
    },
    {
      "type": "Feature",
      "properties": {
        "norad_id": 35173,
        "name": "FENGYUN 1C DEB",
        "group": "fengyun-1c-debris",
        "lat": -25.826372327699005,
        "lon": 71.80848991108908,
        "alt_km": 1408.1557581234238,
        "timestamp": "2025-12-21T18:54:58.783977+00:00",
        "meta_object_name": "FENGYUN 1C DEB",
        "meta_object_id": "1999-025DND",
        "meta_epoch": "2025-12-21T10:04:52.561056",
        "meta_mean_motion": 13.37368293,
        "meta_eccentricity": 0.04908376,
        "meta_inclination": 99.7862,
        "meta_ra_of_asc_node": 66.6618,
        "meta_arg_of_pericenter": 192.6018,
        "meta_mean_anomaly": 166.2462,
        "meta_ephemeris_type": 0,
        "meta_classification_type": "U",
        "meta_norad_cat_id": 35173,
        "meta_element_set_no": 999,
        "meta_rev_at_epoch": 65945,
        "meta_bstar": 0.0016827543,
        "meta_mean_motion_dot": 1.722e-05,
        "meta_mean_motion_ddot": 0,
        "tle_line1": "1 35173U 99025DND 25355.42005279  .00001722  00000+0  16828-2 0  9991",
        "tle_line2": "2 35173  99.7862  66.6618 0490837 192.6018 166.2462 13.37368293659454"
      },
      "geometry": {
        "type": "Point",
        "coordinates": [
          71.80848991108908,
          -25.826372327699005
        ]
      }
    },
    {
      "type": "Feature",
      "properties": {
        "norad_id": 35174,
        "name": "FENGYUN 1C DEB",
        "group": "fengyun-1c-debris",
        "lat": 33.48697327864394,
        "lon": -34.54593396064788,
        "alt_km": 617.3732892784865,
        "timestamp": "2025-12-21T18:54:58.783987+00:00",
        "meta_object_name": "FENGYUN 1C DEB",
        "meta_object_id": "1999-025DNE",
        "meta_epoch": "2025-12-13T04:07:25.072608",
        "meta_mean_motion": 14.98877767,
        "meta_eccentricity": 0.01541479,
        "meta_inclination": 98.9697,
        "meta_ra_of_asc_node": 321.54,
        "meta_arg_of_pericenter": 181.4297,
        "meta_mean_anomaly": 178.6503,
        "meta_ephemeris_type": 0,
        "meta_classification_type": "U",
        "meta_norad_cat_id": 35174,
        "meta_element_set_no": 999,
        "meta_rev_at_epoch": 90172,
        "meta_bstar": 0.0023807921,
        "meta_mean_motion_dot": 0.0003695,
        "meta_mean_motion_ddot": 0,
        "tle_line1": "1 35174U 99025DNE 25347.17181797  .00036950  00000+0  23808-2 0  9992",
        "tle_line2": "2 35174  98.9697 321.5400 0154147 181.4297 178.6503 14.98877767901722"
      },
      "geometry": {
        "type": "Point",
        "coordinates": [
          -34.54593396064788,
          33.48697327864394
        ]
      }
    }
  ]
}